[{"OBJECT_NAME":"STARLINK-35481","OBJECT_ID":"2025-245P","EPOCH":"2026-03-09T20:52:44.180256","MEAN_MOTION":15.30198303,"ECCENTRICITY":0.0001015,"INCLINATION":53.1569,"RA_OF_ASC_NODE":283.0916,"ARG_OF_PERICENTER":73.3526,"MEAN_ANOMALY":286.7587,"EPHEMERIS_TYPE":0,"CLASSIFICATION_TYPE":"U","NORAD_CAT_ID":66247,"ELEMENT_SET_NO":999,"REV_AT_EPOCH":2128,"BSTAR":0.00059083511,"MEAN_MOTION_DOT":0.00017179,"MEAN_MOTION_DDOT":0},{"OBJECT_NAME":"COSMOS 2251 DEB","OBJECT_ID":"1993-036BXP","EPOCH":"2026-03-04T07:23:49.847712","MEAN_MOTION":15.24789556,"ECCENTRICITY":0.00190834,"INCLINATION":73.9759,"RA_OF_ASC_NODE":64.3004,"ARG_OF_PERICENTER":239.4537,"MEAN_ANOMALY":120.4779,"EPHEMERIS_TYPE":0,"CLASSIFICATION_TYPE":"U","NORAD_CAT_ID":47059,"ELEMENT_SET_NO":999,"REV_AT_EPOCH":9543,"BSTAR":0.0048704033,"MEAN_MOTION_DOT":0.00123422,"MEAN_MOTION_DDOT":0}]
